$$SOE
2460154.500000000, A.D. 2023-Jul-29 00:00:00.0000, 7.450576681423071E+07, 4.340705643277122E+08, -5.606101961139537E+07,
2460161.500000000, A.D. 2023-Aug-05 00:00:00.0000, 6.524542183311923E+07, 4.360255723221750E+08, -5.776096238923162E+07,
2460168.500000000, A.D. 2023-Aug-12 00:00:00.0000, 5.594910671717230E+07, 4.377397756743490E+08, -5.942899836996067E+07,
2460175.500000000, A.D. 2023-Aug-19 00:00:00.0000, 4.662208301160901E+07, 4.392132622199886E+08, -6.106434671255167E+07,
2460182.500000000, A.D. 2023-Aug-26 00:00:00.0000, 3.726957809727909E+07, 4.404461900348682E+08, -6.266624278046075E+07,
2460189.500000000, A.D. 2023-Sep-02 00:00:00.0000, 2.789678658790019E+07, 4.414387858506237E+08, -6.423393767648010E+07,
2460196.500000000, A.D. 2023-Sep-09 00:00:00.0000, 1.850887175770821E+07, 4.421913435022522E+08, -6.576669780859314E+07,
2460203.500000000, A.D. 2023-Sep-16 00:00:00.0000, 9.110967163885621E+06, 4.427042223459691E+08, -6.726380450700459E+07,
2460210.500000000, A.D. 2023-Sep-23 00:00:00.0000, -2.918211238684235E+05, 4.429778459315618E+08, -6.872455370718341E+07,
2460217.500000000, A.D. 2023-Sep-30 00:00:00.0000, -9.694412029627763E+06, 4.430127021184903E+08, -7.014825557093319E+07,
2460224.500000000, A.D. 2023-Oct-07 00:00:00.0000, -1.909174906884340E+07, 4.428093440904827E+08, -7.153423387423648E+07,
2460231.500000000, A.D. 2023-Oct-14 00:00:00.0000, -2.847880100040904E+07, 4.423683889503360E+08, -7.288182552704933E+07,
2460238.500000000, A.D. 2023-Oct-21 00:00:00.0000, -3.785056030954377E+07, 4.416905154965140E+08, -7.419038039029209E+07,
2460245.500000000, A.D. 2023-Oct-28 00:00:00.0000, -4.720204094736623E+07, 4.407764634424064E+08, -7.545926107572943E+07,
2460252.500000000, A.D. 2023-Nov-04 00:00:00.0000, -5.652827657755719E+07, 4.396270333051065E+08, -7.668784267682177E+07,
2460259.500000000, A.D. 2023-Nov-11 00:00:00.0000, -6.582431915411094E+07, 4.382430863598803E+08, -7.787551249491352E+07,
2460266.500000000, A.D. 2023-Nov-18 00:00:00.0000, -7.508523761329934E+07, 4.366255445923261E+08, -7.902166978507522E+07,
2460273.500000000, A.D. 2023-Nov-25 00:00:00.0000, -8.430611661075655E+07, 4.347753906680554E+08, -8.012572552562134E+07,
2460280.500000000, A.D. 2023-Dec-02 00:00:00.0000, -9.348205527982998E+07, 4.326936679077567E+08, -8.118710221471351E+07,
2460287.500000000, A.D. 2023-Dec-09 00:00:00.0000, -1.026081659371794E+08, 4.303814802094944E+08, -8.220523370671585E+07,
2460294.500000000, A.D. 2023-Dec-16 00:00:00.0000, -1.116795724507351E+08, 4.278399919322340E+08, -8.317956511475730E+07,
2460301.500000000, A.D. 2023-Dec-23 00:00:00.0000, -1.206914079234592E+08, 4.250704284293335E+08, -8.410955275642185E+07,
2460308.500000000, A.D. 2023-Dec-30 00:00:00.0000, -1.296388130343833E+08, 4.220740782826555E+08, -8.499466393510574E+07,
2460315.500000000, A.D. 2024-Jan-06 00:00:00.0000, -1.385169368089190E+08, 4.188522948760535E+08, -8.583437658772841E+07,
2460322.500000000, A.D. 2024-Jan-13 00:00:00.0000, -1.473209366469275E+08, 4.154064954972624E+08, -8.662817923620442E+07,
2460329.500000000, A.D. 2024-Jan-20 00:00:00.0000, -1.560459763898540E+08, 4.117381610517431E+08, -8.737557110298324E+07,
2460336.500000000, A.D. 2024-Jan-27 00:00:00.0000, -1.646872244590570E+08, 4.078488370421129E+08, -8.807606215250631E+07,
2460343.500000000, A.D. 2024-Feb-03 00:00:00.0000, -1.732398524964663E+08, 4.037401348645131E+08, -8.872917309735250E+07,
2460350.500000000, A.D. 2024-Feb-10 00:00:00.0000, -1.816990342339490E+08, 3.994137331308877E+08, -8.933443541892494E+07,
2460357.500000000, A.D. 2024-Feb-17 00:00:00.0000, -1.900599444567062E+08, 3.948713790261418E+08, -8.989139141576897E+07,
2460364.500000000, A.D. 2024-Feb-24 00:00:00.0000, -1.983177580285870E+08, 3.901148897165422E+08, -9.039959428278317E+07,
2460371.500000000, A.D. 2024-Mar-02 00:00:00.0000, -2.064676489536015E+08, 3.851461537784808E+08, -9.085860822778228E+07,
2460378.500000000, A.D. 2024-Mar-09 00:00:00.0000, -2.145047893384525E+08, 3.799671325862029E+08, -9.126800864424062E+07,
2460385.500000000, A.D. 2024-Mar-16 00:00:00.0000, -2.224243478647336E+08, 3.745798618569554E+08, -9.162738236116868E+07,
2460392.500000000, A.D. 2024-Mar-23 00:00:00.0000, -2.302214878792085E+08, 3.689864544639827E+08, -9.193632787099397E+07,
2460399.500000000, A.D. 2024-Mar-30 00:00:00.0000, -2.378913673485650E+08, 3.631891044932336E+08, -9.219445533369073E+07,
2460406.500000000, A.D. 2024-Apr-06 00:00:00.0000, -2.454291404258858E+08, 3.571900891781198E+08, -9.240138665672030E+07,
2460413.500000000, A.D. 2024-Apr-13 00:00:00.0000, -2.528299570819653E+08, 3.509917695474921E+08, -9.255675590766731E+07,
2460420.500000000, A.D. 2024-Apr-20 00:00:00.0000, -2.600889617616435E+08, 3.445965924644237E+08, -9.266020975477153E+07,
2460427.500000000, A.D. 2024-Apr-27 00:00:00.0000, -2.672012925892209E+08, 3.380070934976982E+08, -9.271140784417474E+07,
2460434.500000000, A.D. 2024-May-04 00:00:00.0000, -2.741620810410668E+08, 3.312258999245962E+08, -9.271002318060371E+07,
2460441.500000000, A.D. 2024-May-11 00:00:00.0000, -2.809664518539877E+08, 3.242557337644575E+08, -9.265574254262449E+07,
2460448.500000000, A.D. 2024-May-18 00:00:00.0000, -2.876095230951693E+08, 3.170994148660713E+08, -9.254826693935560E+07,
2460455.500000000, A.D. 2024-May-25 00:00:00.0000, -2.940864063774146E+08, 3.097598640433251E+08, -9.238731211275987E+07,
2460462.500000000, A.D. 2024-Jun-01 00:00:00.0000, -3.003922071688424E+08, 3.022401062031816E+08, -9.217260909703490E+07,
2460469.500000000, A.D. 2024-Jun-08 00:00:00.0000, -3.065220249603108E+08, 2.945432734442995E+08, -9.190390486094782E+07,
2460476.500000000, A.D. 2024-Jun-15 00:00:00.0000, -3.124709529014789E+08, 2.866726086722890E+08, -9.158096302666858E+07,
2460483.500000000, A.D. 2024-Jun-22 00:00:00.0000, -3.182340779226827E+08, 2.786314709076864E+08, -9.120356447881451E+07,
2460490.500000000, A.D. 2024-Jun-29 00:00:00.0000, -3.238064834771860E+08, 2.704233404682604E+08, -9.077150782071549E+07,
2460497.500000000, A.D. 2024-Jul-06 00:00:00.0000, -3.291832522691793E+08, 2.620518215566118E+08, -9.028461012416448E+07,
2460504.500000000, A.D. 2024-Jul-13 00:00:00.0000, -3.343594670283261E+08, 2.535206450752278E+08, -8.974270792071821E+07,
2460511.500000000, A.D. 2024-Jul-20 00:00:00.0000, -3.393302113302730E+08, 2.448336728155897E+08, -8.914565815987150E+07,
2460518.500000000, A.D. 2024-Jul-27 00:00:00.0000, -3.440905711330974E+08, 2.359949020605388E+08, -8.849333915397906E+07,
2460525.500000000, A.D. 2024-Aug-03 00:00:00.0000, -3.486356367709350E+08, 2.270084702213778E+08, -8.778565156652035E+07,
2460532.500000000, A.D. 2024-Aug-10 00:00:00.0000, -3.529605052558306E+08, 2.178786595002395E+08, -8.702251946083225E+07,
2460539.500000000, A.D. 2024-Aug-17 00:00:00.0000, -3.570602828598366E+08, 2.086099015949407E+08, -8.620389141470671E+07,
2460546.500000000, A.D. 2024-Aug-24 00:00:00.0000, -3.609300879698954E+08, 1.992067824204099E+08, -8.532974170874806E+07,
2460553.500000000, A.D. 2024-Aug-31 00:00:00.0000, -3.645650541201144E+08, 1.896740467813594E+08, -8.440007160741501E+07,
2460560.500000000, A.D. 2024-Sep-07 00:00:00.0000, -3.679603328558504E+08, 1.800166031172078E+08, -8.341491075849558E+07,
2460567.500000000, A.D. 2024-Sep-14 00:00:00.0000, -3.711110963646166E+08, 1.702395293072962E+08, -8.237431863931748E+07,
2460574.500000000, A.D. 2024-Sep-21 00:00:00.0000, -3.740125419249004E+08, 1.603480799388304E+08, -8.127838583186559E+07,
2460581.500000000, A.D. 2024-Sep-28 00:00:00.0000, -3.766598986848482E+08, 1.503476917994271E+08, -8.012723534845708E+07,
2460588.500000000, A.D. 2024-Oct-05 00:00:00.0000, -3.790484331235210E+08, 1.402439875842319E+08, -7.892102434559906E+07,
2460595.500000000, A.D. 2024-Oct-12 00:00:00.0000, -3.811734535771186E+08, 1.300427807805976E+08, -7.765994594909263E+07,
2460602.500000000, A.D. 2024-Oct-19 00:00:00.0000, -3.830303156076003E+08, 1.197500814397562E+08, -7.634423105310033E+07,
2460609.500000000, A.D. 2024-Oct-26 00:00:00.0000, -3.846144282743011E+08, 1.093721020145658E+08, -7.497415015750319E+07,
2460616.500000000, A.D. 2024-Nov-02 00:00:00.0000, -3.859212610784197E+08, 9.891526309329098E+07, -7.355001528003153E+07,
2460623.500000000, A.D. 2024-Nov-09 00:00:00.0000, -3.869463515108687E+08, 8.838619902491127E+07, -7.207218195029874E+07,
2460630.500000000, A.D. 2024-Nov-16 00:00:00.0000, -3.876853132051833E+08, 7.779176340758507E+07, -7.054105128764078E+07,
2460637.500000000, A.D. 2024-Nov-23 00:00:00.0000, -3.881338446765361E+08, 6.713903435837075E+07, -6.895707217026947E+07,
2460644.500000000, A.D. 2024-Nov-30 00:00:00.0000, -3.882877384665229E+08, 5.643531948598877E+07, -6.732074351687826E+07,
2460651.500000000, A.D. 2024-Dec-07 00:00:00.0000, -3.881428903016801E+08, 4.568816094773187E+07, -6.563261668257060E+07,
2460658.500000000, A.D. 2024-Dec-14 00:00:00.0000, -3.876953089809405E+08, 3.490534177026989E+07, -6.389329780287598E+07,
2460665.500000000, A.D. 2024-Dec-21 00:00:00.0000, -3.869411293377346E+08, 2.409489214424603E+07, -6.210344997129835E+07,
2460672.500000000, A.D. 2024-Dec-28 00:00:00.0000, -3.858766263323056E+08, 1.326509267281344E+07, -6.026379567033565E+07,
2460679.500000000, A.D. 2025-Jan-04 00:00:00.0000, -3.844982277002479E+08, 2.424476894834790E+06, -5.837511949413269E+07,
2460686.500000000, A.D. 2025-Jan-11 00:00:00.0000, -3.828025269960773E+08, -8.418165320471317E+06, -5.643827085178380E+07,
2460693.500000000, A.D. 2025-Jan-18 00:00:00.0000, -3.807862979662956E+08, -1.925378449704900E+07, -5.445416663404570E+07,
2460700.500000000, A.D. 2025-Jan-25 00:00:00.0000, -3.784465100253189E+08, -3.007306894313471E+07, -5.242379389602104E+07,
2460707.500000000, A.D. 2025-Feb-01 00:00:00.0000, -3.757803446567874E+08, -4.086644291925281E+07, -5.034821256515701E+07,
2460714.500000000, A.D. 2025-Feb-08 00:00:00.0000, -3.727852126878163E+08, -5.162406564848831E+07, -4.822855816571695E+07,
$$EOE